[{"OBJECT_NAME":"STARLINK-32241","OBJECT_ID":"2024-144N","EPOCH":"2026-03-09T17:01:46.378848","MEAN_MOTION":15.30188966,"ECCENTRICITY":0.00011018,"INCLINATION":53.1599,"RA_OF_ASC_NODE":216.9355,"ARG_OF_PERICENTER":74.4401,"MEAN_ANOMALY":285.6722,"EPHEMERIS_TYPE":0,"CLASSIFICATION_TYPE":"U","NORAD_CAT_ID":60437,"ELEMENT_SET_NO":999,"REV_AT_EPOCH":8931,"BSTAR":6.377078e-6,"MEAN_MOTION_DOT":-1.7e-6,"MEAN_MOTION_DDOT":0},{"OBJECT_NAME":"FLOCK 4G-13","OBJECT_ID":"2025-009N","EPOCH":"2026-03-09T16:57:12.071808","MEAN_MOTION":15.32770015,"ECCENTRICITY":0.0003801,"INCLINATION":97.4019,"RA_OF_ASC_NODE":151.0918,"ARG_OF_PERICENTER":292.7207,"MEAN_ANOMALY":67.3633,"EPHEMERIS_TYPE":0,"CLASSIFICATION_TYPE":"U","NORAD_CAT_ID":62621,"ELEMENT_SET_NO":999,"REV_AT_EPOCH":6370,"BSTAR":0.0016695386,"MEAN_MOTION_DOT":0.00053076,"MEAN_MOTION_DDOT":0}]
