STARLINK-32241          
1 60437U 24144N   26068.70956457 -.00000170  00000+0  63771-5 0  9997
2 60437  53.1599 216.9355 0001102  74.4401 285.6722 15.30188966 89319
FLOCK 4G-13             
1 62621U 25009N   26068.70638971  .00053076  00000+0  16695-2 0  9995
2 62621  97.4019 151.0918 0003801 292.7207  67.3633 15.32770015 63700
